[{"OBJECT_NAME":"ION SCV-010","OBJECT_ID":"2023-054Q","EPOCH":"2026-03-09T16:02:35.904768","MEAN_MOTION":15.25210322,"ECCENTRICITY":0.00127052,"INCLINATION":97.3904,"RA_OF_ASC_NODE":319.4312,"ARG_OF_PERICENTER":188.785,"MEAN_ANOMALY":171.3168,"EPHEMERIS_TYPE":0,"CLASSIFICATION_TYPE":"U","NORAD_CAT_ID":56192,"ELEMENT_SET_NO":999,"REV_AT_EPOCH":16102,"BSTAR":0.00025045068,"MEAN_MOTION_DOT":6.231e-5,"MEAN_MOTION_DDOT":0},{"OBJECT_NAME":"STARLINK-33851","OBJECT_ID":"2025-085V","EPOCH":"2026-03-09T05:38:43.323360","MEAN_MOTION":15.2757957,"ECCENTRICITY":0.00018338,"INCLINATION":43.0038,"RA_OF_ASC_NODE":33.1993,"ARG_OF_PERICENTER":257.4057,"MEAN_ANOMALY":102.659,"EPHEMERIS_TYPE":0,"CLASSIFICATION_TYPE":"U","NORAD_CAT_ID":63683,"ELEMENT_SET_NO":999,"REV_AT_EPOCH":4880,"BSTAR":0.001071424,"MEAN_MOTION_DOT":0.00029338,"MEAN_MOTION_DDOT":0}]
